GSAT0101 (PRN E11)      
1 37846U 11060A   23295.98329858 -.00000086  00000+0  00000+0 0  9992
2 37846  57.1138   7.9830 0000465 338.2572  21.7892  1.70475734 74612
GSAT0102 (PRN E12)      
1 37847U 11060B   23297.15109233 -.00000090  00000+0  00000+0 0  9992
2 37847  57.1145   7.9513 0002350 299.7323 103.1827  1.70475153 74640
GSAT0103 (PRN E19)      
1 38857U 12055A   23297.19562726  .00000078  00000+0  00000+0 0  9998
2 38857  55.3033 128.1213 0002068 241.6623 118.3906  1.70473557 68528
GSAT0104 (PRN E20)      
1 38858U 12055B   23294.81866630  .00000071  00000+0  00000+0 0  9999
2 38858  55.3019 128.1881 0001297 143.4630 216.6147  1.70473816 68598
GSAT0201 (PRN E18)      
1 40128U 14050A   23295.31348702 -.00000031  00000+0  00000+0 0  9997
2 40128  49.8926 312.6464 1607282 142.1923 230.2868  1.85519251 60348
GSAT0202 (PRN E14)      
1 40129U 14050B   23296.65067882 -.00000036  00000+0  00000+0 0  9998
2 40129  49.9103 311.6654 1605222 143.0527 229.1800  1.85519930 62539
GSAT0203 (PRN E26)      
1 40544U 15017A   23296.93580114 -.00000090  00000+0  00000+0 0  9992
2 40544  56.9097   7.9233 0006196 247.5542 112.4278  1.70476155 52716
GSAT0204 (PRN E22)      
1 40545U 15017B   23297.18958646 -.00000091  00000+0  00000+0 0  9991
2 40545  56.9153   7.9309 0004669 229.7124 130.2944  1.70475527 15769
GSAT0205 (PRN E24)      
1 40889U 15045A   23295.78446084  .00000002  00000+0  00000+0 0  9996
2 40889  55.3387 248.3587 0004431   9.9321 350.0576  1.70472856 50501
GSAT0206 (PRN E30)      
1 40890U 15045B   23297.17829600 -.00000012  00000+0  00000+0 0  9994
2 40890  55.3368 248.3157 0002904 350.6789   9.2892  1.70472899 50558
GSAT0209 (PRN E09)      
1 41174U 15079A   23297.34977624  .00000078  00000+0  00000+0 0  9997
2 41174  55.3212 127.8244 0001942 346.3264  13.7419  1.70474121 48294
GSAT0208 (PRN E08)      
1 41175U 15079B   23295.22307543  .00000072  00000+0  00000+0 0  9994
2 41175  55.3185 127.8809 0001370   1.8276 358.2420  1.70474054 48836
GSAT0211 (PRN E02)      
1 41549U 16030A   23295.34423903  .00000006  00000+0  00000+0 0  9996
2 41549  55.4854 248.3519 0004068 327.5139  32.4437  1.70472977 46159
GSAT0210 (PRN E01)      
1 41550U 16030B   23296.22227779 -.00000002  00000+0  00000+0 0  9996
2 41550  55.4843 248.3288 0003565 291.2220  68.7188  1.70473230 46160
GSAT0207 (PRN E07)      
1 41859U 16069A   23295.88383233  .00000073  00000+0  00000+0 0  9996
2 41859  54.9838 127.9246 0001704 311.6159  48.4400  1.70474091 42891
GSAT0212 (PRN E03)      
1 41860U 16069B   23296.32501703  .00000074  00000+0  00000+0 0  9993
2 41860  54.9818 127.9092 0001794  30.0359 330.0460  1.70474308 43150
GSAT0213 (PRN E04)      
1 41861U 16069C   23297.27805557  .00000077  00000+0  00000+0 0  9996
2 41861  54.9842 127.8889 0001793 257.6948 102.3587  1.70472921 43037
GSAT0214 (PRN E05)      
1 41862U 16069D   23295.07897945  .00000071  00000+0  00000+0 0  9999
2 41862  54.9813 127.9438 0000845 252.1903 107.8693  1.70472848 43121
GSAT0215 (PRN E21)      
1 43055U 17079A   23296.15399381 -.00000001  00000+0  00000+0 0  9992
2 43055  55.4611 248.1548 0003012 286.5083  73.4378  1.70473656 36483
GSAT0216 (PRN E25)      
1 43056U 17079B   23297.03245124 -.00000010  00000+0  00000+0 0  9996
2 43056  55.4614 248.1304 0004581 287.4519  72.4724  1.70473782 36511
GSAT0217 (PRN E27)      
1 43057U 17079C   23296.07966229 -.00000001  00000+0  00000+0 0  9996
2 43057  55.4598 248.1557 0004277 299.8886  60.0486  1.70473767 36486
GSAT0218 (PRN E31)      
1 43058U 17079D   23296.29971091 -.00000003  00000+0  00000+0 0  9996
2 43058  55.4599 248.1472 0005019 282.6506  77.2718  1.70473745 36516
GSAT0221 (PRN E15)      
1 43564U 18060A   23295.02634225 -.00000083  00000+0  00000+0 0  9992
2 43564  57.2894   7.9156 0004506 259.9422 100.0570  1.70475870 32642
GSAT0222 (PRN E33)      
1 43565U 18060B   23297.00424360 -.00000090  00000+0  00000+0 0  9998
2 43565  57.2930   7.8633 0004550 230.9512 129.0563  1.70475730 32728
GSAT0219 (PRN E36)      
1 43566U 18060C   23297.22650586 -.00000090  00000+0  00000+0 0  9994
2 43566  57.2923   7.8594 0003440 262.7869  97.2220  1.70476024 32703
GSAT0220 (PRN E13)      
1 43567U 18060D   23296.27378752 -.00000087  00000+0  00000+0 0  9997
2 43567  57.2918   7.8856 0003730 258.6812 101.3252  1.70475673 32670
GSAT0223 (PRN E34)      
1 49809U 21116A   23297.30722809 -.00000090  00000+0  00000+0 0  9993
2 49809  57.2834   7.7533 0003655 202.9935 161.5686  1.70475886 11703
GSAT0224 (PRN E10)      
1 49810U 21116B   23296.52544486 -.00000088  00000+0  00000+0 0  9998
2 49810  57.2840   7.7729 0002961 199.3735 157.8764  1.70475916 11704
